[{"OBJECT_NAME":"ORBCOMM FM108","OBJECT_ID":"2015-081J","EPOCH":"2026-03-09T21:48:58.312800","MEAN_MOTION":14.58744372,"ECCENTRICITY":0.00021704,"INCLINATION":47.0049,"RA_OF_ASC_NODE":291.5329,"ARG_OF_PERICENTER":99.248,"MEAN_ANOMALY":260.8651,"EPHEMERIS_TYPE":0,"CLASSIFICATION_TYPE":"U","NORAD_CAT_ID":41187,"ELEMENT_SET_NO":999,"REV_AT_EPOCH":54558,"BSTAR":0.0002287344,"MEAN_MOTION_DOT":9.07e-6,"MEAN_MOTION_DDOT":0},{"OBJECT_NAME":"CZ-4B DEB","OBJECT_ID":"1999-057SJ","EPOCH":"2026-03-09T02:12:01.746432","MEAN_MOTION":14.43740069,"ECCENTRICITY":0.0079812,"INCLINATION":98.6584,"RA_OF_ASC_NODE":117.3715,"ARG_OF_PERICENTER":318.4413,"MEAN_ANOMALY":41.0727,"EPHEMERIS_TYPE":0,"CLASSIFICATION_TYPE":"U","NORAD_CAT_ID":35330,"ELEMENT_SET_NO":999,"REV_AT_EPOCH":20619,"BSTAR":0.00024396876,"MEAN_MOTION_DOT":8.13e-6,"MEAN_MOTION_DDOT":0}]
